CCSDS_OMM_VERS = 2.0
CREATION_DATE  = 
ORIGINATOR     = 

OBJECT_NAME    = SL-3 R/B
OBJECT_ID      = 1982-079B
CENTER_NAME    = EARTH
REF_FRAME      = TEME
TIME_SYSTEM    = UTC
MEAN_ELEMENT_THEORY = SGP/SGP4

EPOCH          = 2026-03-30T12:47:34.058112
MEAN_MOTION    = 15.25078301
ECCENTRICITY   = .00254697
INCLINATION    = 81.1487
RA_OF_ASC_NODE = 168.4666
ARG_OF_PERICENTER = 96.3163
MEAN_ANOMALY   = 264.0972

EPHEMERIS_TYPE = 0
CLASSIFICATION_TYPE = U
NORAD_CAT_ID   = 13403
ELEMENT_SET_NO = 999
REV_AT_EPOCH   = 38087
BSTAR          = .28206837E-3
MEAN_MOTION_DOT = .7146E-4
MEAN_MOTION_DDOT = 0

CCSDS_OMM_VERS = 2.0
CREATION_DATE  = 
ORIGINATOR     = 

OBJECT_NAME    = SL-14 R/B
OBJECT_ID      = 1982-092B
CENTER_NAME    = EARTH
REF_FRAME      = TEME
TIME_SYSTEM    = UTC
MEAN_ELEMENT_THEORY = SGP/SGP4

EPOCH          = 2026-03-30T14:05:31.246944
MEAN_MOTION    = 14.86685284
ECCENTRICITY   = .00191355
INCLINATION    = 82.5656
RA_OF_ASC_NODE = 121.8497
ARG_OF_PERICENTER = 228.9288
MEAN_ANOMALY   = 253.7323

EPHEMERIS_TYPE = 0
CLASSIFICATION_TYPE = U
NORAD_CAT_ID   = 13553
ELEMENT_SET_NO = 999
REV_AT_EPOCH   = 33203
BSTAR          = .58283942E-4
MEAN_MOTION_DOT = .544E-5
MEAN_MOTION_DDOT = 0

CCSDS_OMM_VERS = 2.0
CREATION_DATE  = 
ORIGINATOR     = 

OBJECT_NAME    = SL-3 R/B
OBJECT_ID      = 1983-010B
CENTER_NAME    = EARTH
REF_FRAME      = TEME
TIME_SYSTEM    = UTC
MEAN_ELEMENT_THEORY = SGP/SGP4

EPOCH          = 2026-03-30T09:33:33.458688
MEAN_MOTION    = 15.47055924
ECCENTRICITY   = .00158281
INCLINATION    = 81.1054
RA_OF_ASC_NODE = 336.8476
ARG_OF_PERICENTER = 340.0759
MEAN_ANOMALY   = 19.9866

EPHEMERIS_TYPE = 0
CLASSIFICATION_TYPE = U
NORAD_CAT_ID   = 13819
ELEMENT_SET_NO = 999
REV_AT_EPOCH   = 36114
BSTAR          = .38266215E-3
MEAN_MOTION_DOT = .19496E-3
MEAN_MOTION_DDOT = 0

CCSDS_OMM_VERS = 2.0
CREATION_DATE  = 
ORIGINATOR     = 

OBJECT_NAME    = SL-3 R/B
OBJECT_ID      = 1983-075B
CENTER_NAME    = EARTH
REF_FRAME      = TEME
TIME_SYSTEM    = UTC
MEAN_ELEMENT_THEORY = SGP/SGP4

EPOCH          = 2026-03-30T13:30:36.891936
MEAN_MOTION    = 15.38913286
ECCENTRICITY   = .00224265
INCLINATION    = 97.6134
RA_OF_ASC_NODE = 94.9383
ARG_OF_PERICENTER = 150.5677
MEAN_ANOMALY   = 209.6836

EPHEMERIS_TYPE = 0
CLASSIFICATION_TYPE = U
NORAD_CAT_ID   = 14208
ELEMENT_SET_NO = 999
REV_AT_EPOCH   = 33336
BSTAR          = .38630862E-3
MEAN_MOTION_DOT = .14926E-3
MEAN_MOTION_DDOT = 0

CCSDS_OMM_VERS = 2.0
CREATION_DATE  = 
ORIGINATOR     = 

OBJECT_NAME    = COSMOS 1536
OBJECT_ID      = 1984-013A
CENTER_NAME    = EARTH
REF_FRAME      = TEME
TIME_SYSTEM    = UTC
MEAN_ELEMENT_THEORY = SGP/SGP4

EPOCH          = 2026-03-30T11:14:50.249760
MEAN_MOTION    = 15.24109321
ECCENTRICITY   = .00135361
INCLINATION    = 82.5411
RA_OF_ASC_NODE = 87.1846
ARG_OF_PERICENTER = 201.5665
MEAN_ANOMALY   = 158.5004

EPHEMERIS_TYPE = 0
CLASSIFICATION_TYPE = U
NORAD_CAT_ID   = 14699
ELEMENT_SET_NO = 999
REV_AT_EPOCH   = 27578
BSTAR          = .39339569E-3
MEAN_MOTION_DOT = .9615E-4
MEAN_MOTION_DDOT = 0

CCSDS_OMM_VERS = 2.0
CREATION_DATE  = 
ORIGINATOR     = 

OBJECT_NAME    = SL-14 R/B
OBJECT_ID      = 1984-027B
CENTER_NAME    = EARTH
REF_FRAME      = TEME
TIME_SYSTEM    = UTC
MEAN_ELEMENT_THEORY = SGP/SGP4

EPOCH          = 2026-03-30T15:14:18.440160
MEAN_MOTION    = 14.85999118
ECCENTRICITY   = .00164891
INCLINATION    = 82.5421
RA_OF_ASC_NODE = 225.3672
ARG_OF_PERICENTER = 263.6007
MEAN_ANOMALY   = 96.3332

EPHEMERIS_TYPE = 0
CLASSIFICATION_TYPE = U
NORAD_CAT_ID   = 14820
ELEMENT_SET_NO = 999
REV_AT_EPOCH   = 25074
BSTAR          = .77732966E-4
MEAN_MOTION_DOT = .704E-5
MEAN_MOTION_DDOT = 0

CCSDS_OMM_VERS = 2.0
CREATION_DATE  = 
ORIGINATOR     = 

OBJECT_NAME    = SL-8 R/B
OBJECT_ID      = 1985-006B
CENTER_NAME    = EARTH
REF_FRAME      = TEME
TIME_SYSTEM    = UTC
MEAN_ELEMENT_THEORY = SGP/SGP4

EPOCH          = 2026-03-30T12:48:55.258560
MEAN_MOTION    = 14.37798406
ECCENTRICITY   = .00176115
INCLINATION    = 74.0454
RA_OF_ASC_NODE = 222.7906
ARG_OF_PERICENTER = 134.5388
MEAN_ANOMALY   = 298.2091

EPHEMERIS_TYPE = 0
CLASSIFICATION_TYPE = U
NORAD_CAT_ID   = 15483
ELEMENT_SET_NO = 999
REV_AT_EPOCH   = 15702
BSTAR          = .13127596E-3
MEAN_MOTION_DOT = .37E-5
MEAN_MOTION_DDOT = 0

CCSDS_OMM_VERS = 2.0
CREATION_DATE  = 
ORIGINATOR     = 

OBJECT_NAME    = SL-12 R/B(2)
OBJECT_ID      = 1985-042D
CENTER_NAME    = EARTH
REF_FRAME      = TEME
TIME_SYSTEM    = UTC
MEAN_ELEMENT_THEORY = SGP/SGP4

EPOCH          = 2026-03-30T07:33:53.800128
MEAN_MOTION    = 14.21988270
ECCENTRICITY   = .0032847
INCLINATION    = 71.1091
RA_OF_ASC_NODE = 44.1501
ARG_OF_PERICENTER = 93.9387
MEAN_ANOMALY   = 17.1764

EPHEMERIS_TYPE = 0
CLASSIFICATION_TYPE = U
NORAD_CAT_ID   = 15772
ELEMENT_SET_NO = 999
REV_AT_EPOCH   = 11732
BSTAR          = .45848E-4
MEAN_MOTION_DOT = .54E-6
MEAN_MOTION_DDOT = 0

CCSDS_OMM_VERS = 2.0
CREATION_DATE  = 
ORIGINATOR     = 

OBJECT_NAME    = SL-14 R/B
OBJECT_ID      = 1985-069B
CENTER_NAME    = EARTH
REF_FRAME      = TEME
TIME_SYSTEM    = UTC
MEAN_ELEMENT_THEORY = SGP/SGP4

EPOCH          = 2026-03-30T06:38:32.114112
MEAN_MOTION    = 14.86455580
ECCENTRICITY   = .0020092
INCLINATION    = 82.5305
RA_OF_ASC_NODE = 5.5800
ARG_OF_PERICENTER = 121.6511
MEAN_ANOMALY   = 238.6669

EPHEMERIS_TYPE = 0
CLASSIFICATION_TYPE = U
NORAD_CAT_ID   = 15945
ELEMENT_SET_NO = 999
REV_AT_EPOCH   = 17589
BSTAR          = .65443E-4
MEAN_MOTION_DOT = .605E-5
MEAN_MOTION_DDOT = 0

CCSDS_OMM_VERS = 2.0
CREATION_DATE  = 
ORIGINATOR     = 

OBJECT_NAME    = SL-16 R/B
OBJECT_ID      = 1985-097B
CENTER_NAME    = EARTH
REF_FRAME      = TEME
TIME_SYSTEM    = UTC
MEAN_ELEMENT_THEORY = SGP/SGP4

EPOCH          = 2026-03-30T11:22:14.965248
MEAN_MOTION    = 14.16603435
ECCENTRICITY   = .000941
INCLINATION    = 71.0007
RA_OF_ASC_NODE = 96.7954
ARG_OF_PERICENTER = 235.5352
MEAN_ANOMALY   = 234.0977

EPHEMERIS_TYPE = 0
CLASSIFICATION_TYPE = U
NORAD_CAT_ID   = 16182
ELEMENT_SET_NO = 999
REV_AT_EPOCH   = 9017
BSTAR          = -.41596378E-4
MEAN_MOTION_DOT = -.131E-5
MEAN_MOTION_DDOT = 0

CCSDS_OMM_VERS = 2.0
CREATION_DATE  = 
ORIGINATOR     = 

OBJECT_NAME    = SL-14 R/B
OBJECT_ID      = 1986-006B
CENTER_NAME    = EARTH
REF_FRAME      = TEME
TIME_SYSTEM    = UTC
MEAN_ELEMENT_THEORY = SGP/SGP4

EPOCH          = 2026-03-30T12:25:32.165760
MEAN_MOTION    = 14.86849604
ECCENTRICITY   = .00759341
INCLINATION    = 82.5254
RA_OF_ASC_NODE = 240.1302
ARG_OF_PERICENTER = 202.6549
MEAN_ANOMALY   = 157.1312

EPHEMERIS_TYPE = 0
CLASSIFICATION_TYPE = U
NORAD_CAT_ID   = 16496
ELEMENT_SET_NO = 999
REV_AT_EPOCH   = 15230
BSTAR          = .12601055E-3
MEAN_MOTION_DOT = .1211E-4
MEAN_MOTION_DDOT = 0

CCSDS_OMM_VERS = 2.0
CREATION_DATE  = 
ORIGINATOR     = 

OBJECT_NAME    = COSMOS 1743
OBJECT_ID      = 1986-034A
CENTER_NAME    = EARTH
REF_FRAME      = TEME
TIME_SYSTEM    = UTC
MEAN_ELEMENT_THEORY = SGP/SGP4

EPOCH          = 2026-03-30T07:19:24.794112
MEAN_MOTION    = 15.60295929
ECCENTRICITY   = .0004744
INCLINATION    = 82.5302
RA_OF_ASC_NODE = 52.1657
ARG_OF_PERICENTER = 167.4292
MEAN_ANOMALY   = 192.7084

EPHEMERIS_TYPE = 0
CLASSIFICATION_TYPE = U
NORAD_CAT_ID   = 16719
ELEMENT_SET_NO = 999
REV_AT_EPOCH   = 18346
BSTAR          = .66577E-3
MEAN_MOTION_DOT = .54688E-3
MEAN_MOTION_DDOT = 0

